{
  "type": "FeatureCollection",
  "features": [
    {
      "type": "Feature",
      "properties": {
        "norad_id": 33939,
        "name": "COSMOS 2251 DEB",
        "group": "cosmos-2251-debris",
        "lat": -2.9533082580630383,
        "lon": -102.06526630836758,
        "alt_km": 571.5145443611518,
        "timestamp": "2025-12-14T11:29:50.453454+00:00",
        "meta_object_name": "COSMOS 2251 DEB",
        "meta_object_id": "1993-036EU",
        "meta_epoch": "2025-12-13T15:28:36.946848",
        "meta_mean_motion": 14.9999981,
        "meta_eccentricity": 0.00037877,
        "meta_inclination": 74.0063,
        "meta_ra_of_asc_node": 78.7846,
        "meta_arg_of_pericenter": 53.6268,
        "meta_mean_anomaly": 306.5268,
        "meta_ephemeris_type": 0,
        "meta_classification_type": "U",
        "meta_norad_cat_id": 33939,
        "meta_element_set_no": 999,
        "meta_rev_at_epoch": 88766,
        "meta_bstar": 0.0028663798,
        "meta_mean_motion_dot": 0.00035807,
        "meta_mean_motion_ddot": 0,
        "tle_line1": "1 33939U 93036EU  25347.64487207  .00035807  00000+0  28664-2 0  9997",
        "tle_line2": "2 33939  74.0063  78.7846 0003787  53.6268 306.5268 14.99999810887668"
      },
      "geometry": {
        "type": "Point",
        "coordinates": [
          -102.06526630836758,
          -2.9533082580630383
        ]
      }
    },
    {
      "type": "Feature",
      "properties": {
        "norad_id": 33940,
        "name": "COSMOS 2251 DEB",
        "group": "cosmos-2251-debris",
        "lat": 52.60830846772154,
        "lon": 162.17496005596254,
        "alt_km": 699.3545129397917,
        "timestamp": "2025-12-14T11:29:50.453464+00:00",
        "meta_object_name": "COSMOS 2251 DEB",
        "meta_object_id": "1993-036EV",
        "meta_epoch": "2025-12-13T12:29:04.783200",
        "meta_mean_motion": 14.58810204,
        "meta_eccentricity": 0.00112623,
        "meta_inclination": 74.0394,
        "meta_ra_of_asc_node": 142.0107,
        "meta_arg_of_pericenter": 221.7198,
        "meta_mean_anomaly": 200.4763,
        "meta_ephemeris_type": 0,
        "meta_classification_type": "U",
        "meta_norad_cat_id": 33940,
        "meta_element_set_no": 999,
        "meta_rev_at_epoch": 88605,
        "meta_bstar": 0.0018046283,
        "meta_mean_motion_dot": 8.427e-05,
        "meta_mean_motion_ddot": 0,
        "tle_line1": "1 33940U 93036EV  25347.52019425  .00008427  00000+0  18046-2 0  9990",
        "tle_line2": "2 33940  74.0394 142.0107 0011262 221.7198 200.4763 14.58810204886057"
      },
      "geometry": {
        "type": "Point",
        "coordinates": [
          162.17496005596254,
          52.60830846772154
        ]
      }
    },
    {
      "type": "Feature",
      "properties": {
        "norad_id": 33942,
        "name": "COSMOS 2251 DEB",
        "group": "cosmos-2251-debris",
        "lat": 53.645130198051135,
        "lon": 68.74085085455708,
        "alt_km": 768.7810083289705,
        "timestamp": "2025-12-14T11:29:50.453474+00:00",
        "meta_object_name": "COSMOS 2251 DEB",
        "meta_object_id": "1993-036EX",
        "meta_epoch": "2025-12-13T12:05:55.254336",
        "meta_mean_motion": 14.37990841,
        "meta_eccentricity": 0.00203519,
        "meta_inclination": 74.0366,
        "meta_ra_of_asc_node": 273.4209,
        "meta_arg_of_pericenter": 356.4847,
        "meta_mean_anomaly": 121.3461,
        "meta_ephemeris_type": 0,
        "meta_classification_type": "U",
        "meta_norad_cat_id": 33942,
        "meta_element_set_no": 999,
        "meta_rev_at_epoch": 88145,
        "meta_bstar": 0.00037403192,
        "meta_mean_motion_dot": 1.108e-05,
        "meta_mean_motion_ddot": 0,
        "tle_line1": "1 33942U 93036EX  25347.50411174  .00001108  00000+0  37403-3 0  9995",
        "tle_line2": "2 33942  74.0366 273.4209 0020351 356.4847 121.3461 14.37990841881454"
      },
      "geometry": {
        "type": "Point",
        "coordinates": [
          68.74085085455708,
          53.645130198051135
        ]
      }
    },
    {
      "type": "Feature",
      "properties": {
        "norad_id": 33944,
        "name": "COSMOS 2251 DEB",
        "group": "cosmos-2251-debris",
        "lat": -7.538387301273648,
        "lon": -56.44365132242925,
        "alt_km": 721.552610681294,
        "timestamp": "2025-12-14T11:29:50.453484+00:00",
        "meta_object_name": "COSMOS 2251 DEB",
        "meta_object_id": "1993-036EZ",
        "meta_epoch": "2025-12-13T16:18:18.069984",
        "meta_mean_motion": 14.37346012,
        "meta_eccentricity": 0.0112214,
        "meta_inclination": 74.0403,
        "meta_ra_of_asc_node": 307.1973,
        "meta_arg_of_pericenter": 46.549,
        "meta_mean_anomaly": 130.5015,
        "meta_ephemeris_type": 0,
        "meta_classification_type": "U",
        "meta_norad_cat_id": 33944,
        "meta_element_set_no": 999,
        "meta_rev_at_epoch": 88041,
        "meta_bstar": 0.00050489322,
        "meta_mean_motion_dot": 1.594e-05,
        "meta_mean_motion_ddot": 0,
        "tle_line1": "1 33944U 93036EZ  25347.67937581  .00001594  00000+0  50489-3 0  9998",
        "tle_line2": "2 33944  74.0403 307.1973 0112214  46.5490 130.5015 14.37346012880419"
      },
      "geometry": {
        "type": "Point",
        "coordinates": [
          -56.44365132242925,
          -7.538387301273648
        ]
      }
    },
    {
      "type": "Feature",
      "properties": {
        "norad_id": 33945,
        "name": "COSMOS 2251 DEB",
        "group": "cosmos-2251-debris",
        "lat": 48.088257514196535,
        "lon": 104.47617013989313,
        "alt_km": 774.4864376039259,
        "timestamp": "2025-12-14T11:29:50.453494+00:00",
        "meta_object_name": "COSMOS 2251 DEB",
        "meta_object_id": "1993-036FA",
        "meta_epoch": "2025-12-13T14:48:56.265696",
        "meta_mean_motion": 14.34601849,
        "meta_eccentricity": 0.00219389,
        "meta_inclination": 74.0298,
        "meta_ra_of_asc_node": 304.6588,
        "meta_arg_of_pericenter": 30.7484,
        "meta_mean_anomaly": 329.4948,
        "meta_ephemeris_type": 0,
        "meta_classification_type": "U",
        "meta_norad_cat_id": 33945,
        "meta_element_set_no": 999,
        "meta_rev_at_epoch": 88028,
        "meta_bstar": 0.00020455319,
        "meta_mean_motion_dot": 5.53e-06,
        "meta_mean_motion_ddot": 0,
        "tle_line1": "1 33945U 93036FA  25347.61731789  .00000553  00000+0  20455-3 0  9999",
        "tle_line2": "2 33945  74.0298 304.6588 0021938  30.7484 329.4948 14.34601849880284"
      },
      "geometry": {
        "type": "Point",
        "coordinates": [
          104.47617013989313,
          48.088257514196535
        ]
      }
    },
    {
      "type": "Feature",
      "properties": {
        "norad_id": 33948,
        "name": "COSMOS 2251 DEB",
        "group": "cosmos-2251-debris",
        "lat": -15.277148065957645,
        "lon": -62.54093484524664,
        "alt_km": 763.702383425285,
        "timestamp": "2025-12-14T11:29:50.453503+00:00",
        "meta_object_name": "COSMOS 2251 DEB",
        "meta_object_id": "1993-036FD",
        "meta_epoch": "2025-12-13T07:08:24.088128",
        "meta_mean_motion": 14.35630699,
        "meta_eccentricity": 0.00227382,
        "meta_inclination": 74.0356,
        "meta_ra_of_asc_node": 304.1105,
        "meta_arg_of_pericenter": 19.7912,
        "meta_mean_anomaly": 340.4117,
        "meta_ephemeris_type": 0,
        "meta_classification_type": "U",
        "meta_norad_cat_id": 33948,
        "meta_element_set_no": 999,
        "meta_rev_at_epoch": 88031,
        "meta_bstar": 0.00033011318,
        "meta_mean_motion_dot": 9.29e-06,
        "meta_mean_motion_ddot": 0,
        "tle_line1": "1 33948U 93036FD  25347.29750102  .00000929  00000+0  33011-3 0  9995",
        "tle_line2": "2 33948  74.0356 304.1105 0022738  19.7912 340.4117 14.35630699880315"
      },
      "geometry": {
        "type": "Point",
        "coordinates": [
          -62.54093484524664,
          -15.277148065957645
        ]
      }
    },
    {
      "type": "Feature",
      "properties": {
        "norad_id": 33971,
        "name": "COSMOS 2251 DEB",
        "group": "cosmos-2251-debris",
        "lat": 70.11263362721863,
        "lon": -57.11877805916442,
        "alt_km": 751.6266104281149,
        "timestamp": "2025-12-14T11:29:50.453513+00:00",
        "meta_object_name": "COSMOS 2251 DEB",
        "meta_object_id": "1993-036FE",
        "meta_epoch": "2025-12-13T12:35:35.076192",
        "meta_mean_motion": 14.39728211,
        "meta_eccentricity": 0.00185627,
        "meta_inclination": 74.0249,
        "meta_ra_of_asc_node": 252.2823,
        "meta_arg_of_pericenter": 352.5905,
        "meta_mean_anomaly": 180.8302,
        "meta_ephemeris_type": 0,
        "meta_classification_type": "U",
        "meta_norad_cat_id": 33971,
        "meta_element_set_no": 999,
        "meta_rev_at_epoch": 88150,
        "meta_bstar": 0.00043902411,
        "meta_mean_motion_dot": 1.351e-05,
        "meta_mean_motion_ddot": 0,
        "tle_line1": "1 33971U 93036FE  25347.52471153  .00001351  00000+0  43902-3 0  9993",
        "tle_line2": "2 33971  74.0249 252.2823 0018562 352.5905 180.8302 14.39728211881508"
      },
      "geometry": {
        "type": "Point",
        "coordinates": [
          -57.11877805916442,
          70.11263362721863
        ]
      }
    }
  ]
}